NORAD_CAT_ID,OBJECT_NAME,OBJECT_TYPE,EPOCH,MEAN_MOTION,ECCENTRICITY,INCLINATION,RA_OF_ASC_NODE,ARG_OF_PERICENTER,MEAN_ANOMALY,BSTAR,MEAN_MOTION_DOT,MEAN_MOTION_DDOT,TLE_LINE0,TLE_LINE1,TLE_LINE2,SEMIMAJOR_AXIS,PERIOD,APOGEE,PERIGEE,DECAYED
52334.0,STARLINK-3880,PAYLOAD,2022-09-11 14:00:01,15.08820219,0.0002085999999999,53.2169,173.3005,49.0978,281.962,0.0027549,0.00043806,0.0,0 STARLINK-3880,1 52334U 22045D   22254.58334491  .00043806  00000-0  27549-2 0  9992,2 52334  53.2169 173.3005 0002086  49.0978 281.9620 15.08820219  1305,6917.941,95.439,541.249,538.363,0.0
52334.0,STARLINK-3880,PAYLOAD,2022-09-11 22:00:00,15.0888092,0.0002109,53.217,171.8048,49.2277,293.4153,-0.0034508,-0.00054853,0.0,0 STARLINK-3880,1 52334U 22045D   22254.91667824 -.00054853  00000-0 -34508-2 0  9997,2 52334  53.2170 171.8048 0002109  49.2277 293.4153 15.08880920  1301,6917.755,95.435,541.0790000000002,538.161,0.0
52334.0,STARLINK-3880,PAYLOAD,2022-09-12 06:00:00,15.08832708,0.0002182,53.2167,170.3095,42.8341,311.4249,0.00048375,7.418e-05,0.0,0 STARLINK-3880,1 52334U 22045D   22255.25001157  .00007418  00000-0  48375-3 0  9997,2 52334  53.2167 170.3095 0002182  42.8341 311.4249 15.08832708 23228,6917.903,95.438,541.2769999999998,538.258,0.0
52334.0,STARLINK-3880,PAYLOAD,2022-09-12 14:00:01,15.08805058,0.0001932,53.2169,168.8114,46.9955,318.8624,0.0028368,0.00045106,0.0,0 STARLINK-3880,1 52334U 22045D   22255.58334491  .00045106  00000-0  28368-2 0  9998,2 52334  53.2169 168.8114 0001932  46.9955 318.8624 15.08805058  1303,6917.986999999999,95.44,541.189,538.516,0.0
52334.0,STARLINK-3880,PAYLOAD,2022-09-12 22:00:00,15.08852477,0.0002,53.2169,167.3159,46.7358,330.6902,-0.00087572,-0.00014203,0.0,0 STARLINK-3880,1 52334U 22045D   22255.91667824 -.00014203  00000-0 -87572-3 0  9993,2 52334  53.2169 167.3159 0002000  46.7358 330.6902 15.08852477  1306,6917.842,95.437,541.091,538.3240000000002,0.0
52334.0,STARLINK-3880,PAYLOAD,2022-09-13 08:00:01,15.08871971,0.0002072,53.2164,165.4459,42.6808,79.2135,-0.0030215,-0.00048098,0.0,0 STARLINK-3880,1 52334U 22045D   22256.33334491 -.00048098  00000-0 -30215-2 0  9991,2 52334  53.2164 165.4459 0002072  42.6808  79.2135 15.08871971 23394,6917.783,95.436,541.081,538.214,0.0
52334.0,STARLINK-3880,PAYLOAD,2022-09-13 14:00:01,15.08810497,0.0001819,53.2165,164.3223,46.6443,353.9765,0.003085,0.00049113,0.0,0 STARLINK-3880,1 52334U 22045D   22256.58334491  .00049113  00000-0  30850-2 0  9990,2 52334  53.2165 164.3223 0001819  46.6443 353.9765 15.08810497  1303,6917.971,95.439,541.094,538.577,0.0
52334.0,STARLINK-3880,PAYLOAD,2022-09-13 22:00:00,15.08865365,0.0001896,53.2165,162.8271,44.6121,7.5737,-0.0038308,-0.00060784,0.0,0 STARLINK-3880,1 52334U 22045D   22256.91667824 -.00060784  00000-0 -38308-2 0  9991,2 52334  53.2165 162.8271 0001896  44.6121   7.5737 15.08865365  1300,6917.803000000001,95.436,540.979,538.356,0.0
52334.0,STARLINK-3880,PAYLOAD,2022-09-14 14:00:01,15.08777752,0.0002013,53.2171,159.82399999999996,47.4838,27.8963,0.005166,0.00082755,0.0,0 STARLINK-3880,1 52334U 22045D   22257.58334491  .00082755  00000-0  51660-2 0  9992,2 52334  53.2171 159.8240 0002013  47.4838  27.8963 15.08777752  1305,6918.071,95.441,541.328,538.543,0.0
52334.0,STARLINK-3880,PAYLOAD,2022-09-14 22:00:00,15.08868297,0.0001867,53.2157,158.3381,43.9788,42.9733,-0.0029987,-0.00047734,0.0,0 STARLINK-3880,1 52334U 22045D   22257.91667824 -.00047734  00000-0 -29987-2 0  9995,2 52334  53.2157 158.3381 0001867  43.9788  42.9733 15.08868297  1308,6917.794,95.436,540.95,538.367,0.0
52334.0,STARLINK-3880,PAYLOAD,2022-09-15 06:00:00,15.08829463,0.0001925,53.2151,156.8421,39.024,59.5439,0.0018184,0.00028762,0.0,0 STARLINK-3880,1 52334U 22045D   22258.25001157  .00028762  00000-0  18184-2 0  9999,2 52334  53.2151 156.8421 0001925  39.0240  59.5439 15.08829463 23688,6917.913000000001,95.438,541.109,538.446,0.0
52334.0,STARLINK-3880,PAYLOAD,2022-09-15 14:00:01,15.08830461,0.000175,53.2151,155.3441,45.0476,65.1186,0.0021219999999999,0.00033637,0.0,0 STARLINK-3880,1 52334U 22045D   22258.58334491  .00033637  00000-0  21220-2 0  9997,2 52334  53.2151 155.3441 0001750  45.0476  65.1186 15.08830461  1305,6917.91,95.438,540.985,538.564,0.0
52334.0,STARLINK-3880,PAYLOAD,2022-09-15 16:00:00,15.0884749,0.0001773,53.2151,154.9699,47.6598,155.4006,0.00026155,3.878e-05,0.0,0 STARLINK-3880,1 52334U 22045D   22258.66667824  .00003878  00000-0  26155-3 0  9992,2 52334  53.2151 154.9699 0001773  47.6598 155.4006 15.08847490  1307,6917.857,95.437,540.9490000000002,538.496,0.0
52334.0,STARLINK-3880,PAYLOAD,2022-09-15 23:03:10,15.08844746,0.0002068,53.2178,153.6512,46.243,313.8733,0.00014292,1.987e-05,0.0,0 STARLINK-3880,1 52334U 22045D   22258.96053464  .00001987  00000-0  14292-3 0  9992,2 52334  53.2178 153.6512 0002068  46.2430 313.8733 15.08844746 23799,6917.866,95.437,541.161,538.3,0.0
52334.0,STARLINK-3880,PAYLOAD,2022-09-16 00:38:33,15.08843702,0.0001999,53.2169,153.3538,46.4054,313.7104,0.00013566,1.872e-05,0.0,0 STARLINK-3880,1 52334U 22045D   22259.02677540  .00001872  00000-0  13566-3 0  9993,2 52334  53.2169 153.3538 0001999  46.4054 313.7104 15.08843702 23804,6917.869000000002,95.437,541.117,538.351,0.0
52334.0,STARLINK-3880,PAYLOAD,2022-09-17 02:04:43,15.08840436,0.0001950999999999,53.2173,148.5959,44.0973,316.0174,1.4905e-05,-5.1e-07,0.0,0 STARLINK-3880,1 52334U 22045D   22260.08661863 -.00000051  00000-0  14905-4 0  9990,2 52334  53.2173 148.5959 0001951  44.0973 316.0174 15.08840436 23965,6917.879,95.438,541.094,538.394,0.0
52334.0,STARLINK-3880,PAYLOAD,2022-09-17 21:09:21,15.08837241,0.0001821999999999,53.2177,145.026,47.0141,313.1003,1.7774e-06,-2.6e-06,0.0,0 STARLINK-3880,1 52334U 22045D   22260.88149931 -.00000260  00000-0  17774-5 0  9995,2 52334  53.2177 145.0260 0001822  47.0141 313.1003 15.08837241 24086,6917.889,95.438,541.014,538.493,0.0
52334.0,STARLINK-3880,PAYLOAD,2022-09-18 01:55:30,15.08840558,0.0001604,53.218,144.1358,54.6087,305.5054,-6.0102e-05,-1.244e-05,0.0,0 STARLINK-3880,1 52334U 22045D   22261.08021918 -.00001244  00000-0 -60102-4 0  9998,2 52334  53.2180 144.1358 0001604  54.6087 305.5054 15.08840558 24119,6917.879,95.438,540.8530000000002,538.634,0.0
52334.0,STARLINK-3880,PAYLOAD,2022-09-18 19:24:45,15.08838682,0.0001959,53.2175,140.8659,42.0117,318.1025,9.599e-05,1.24e-05,0.0,0 STARLINK-3880,1 52334U 22045D   22261.80885576  .00001240  00000-0  95990-4 0  9993,2 52334  53.2175 140.8659 0001959  42.0117 318.1025 15.08838682 24223,6917.884,95.438,541.105,538.394,0.0
52334.0,STARLINK-3880,PAYLOAD,2022-09-18 21:00:08,15.08839295,0.0001928,53.2181,140.5674,46.427,313.6882,0.00011374,1.522e-05,0.0,0 STARLINK-3880,1 52334U 22045D   22261.87509472  .00001522  00000-0  11374-3 0  9994,2 52334  53.2181 140.5674 0001928  46.4270 313.6882 15.08839295 24231,6917.8830000000025,95.438,541.081,538.414,0.0
52334.0,STARLINK-3880,PAYLOAD,2022-09-19 01:46:17,15.0883861,0.00021,53.2177,139.6768,39.1126,321.0018,7.2449e-05,8.65e-06,0.0,0 STARLINK-3880,1 52334U 22045D   22262.07381720  .00000865  00000-0  72449-4 0  9991,2 52334  53.2177 139.6768 0002100  39.1126 321.0018 15.08838610 24268,6917.885,95.438,541.202,538.297,0.0
52334.0,STARLINK-3880,PAYLOAD,2022-09-19 16:04:46,15.08820383,0.0002171999999999,53.2181,137.0004,37.0912,323.023,0.00026058,3.859e-05,0.0,0 STARLINK-3880,1 52334U 22045D   22262.66998205  .00003859  00000-0  26058-3 0  9998,2 52334  53.2181 137.0004 0002172  37.0912 323.0230 15.08820383 24353,6917.94,95.439,541.308,538.303,0.0
52334.0,STARLINK-3880,PAYLOAD,2022-09-20 01:37:05,15.08820254,0.0002189,53.2179,135.2166,36.8685,323.2457,0.00017191,2.447e-05,0.0,0 STARLINK-3880,1 52334U 22045D   22263.06742910  .00002447  00000-0  17191-3 0  9993,2 52334  53.2179 135.2166 0002189  36.8685 323.2457 15.08820254 24418,6917.941,95.439,541.32,538.2909999999998,0.0
52334.0,STARLINK-3880,PAYLOAD,2022-09-21 01:27:52,15.08838998,0.0001712,53.2168,130.7545,45.3163,314.7968,-0.00010374,-1.939e-05,0.0,0 STARLINK-3880,1 52334U 22045D   22264.06102630 -.00001939  00000-0 -10374-3 0  9996,2 52334  53.2168 130.7545 0001712  45.3163 314.7968 15.08838998 24566,6917.8830000000025,95.438,540.933,538.564,0.0
52334.0,STARLINK-3880,PAYLOAD,2022-09-21 22:07:53,15.08832284,0.0001954,53.2173,126.8893,44.5915,315.5234,7.330100000000001e-05,8.78e-06,0.0,0 STARLINK-3880,1 52334U 22045D   22264.92215037  .00000878  00000-0  73301-4 0  9996,2 52334  53.2173 126.8893 0001954  44.5915 315.5234 15.08832284 24699,6917.904,95.438,541.121,538.4169999999998,0.0
52334.0,STARLINK-3880,PAYLOAD,2022-09-22 07:40:13,15.08825628,0.0002093,53.2168,125.1056,47.0021,313.1147,-6.774e-07,-2.99e-06,0.0,0 STARLINK-3880,1 52334U 22045D   22265.31960075 -.00000299  00000-0 -67740-6 0  9990,2 52334  53.2168 125.1056 0002093  47.0021 313.1147 15.08825628 24755,6917.924,95.438,541.237,538.341,0.0
52334.0,STARLINK-3880,PAYLOAD,2022-09-22 21:58:41,15.08829716,0.000192,53.2164,122.429,44.6868,315.4279,8.5276e-05,1.069e-05,0.0,0 STARLINK-3880,1 52334U 22045D   22265.91575874  .00001069  00000-0  85276-4 0  9991,2 52334  53.2164 122.4290 0001920  44.6868 315.4279 15.08829716 24844,6917.9119999999975,95.438,541.105,538.4490000000002,0.0
52334.0,STARLINK-3880,PAYLOAD,2022-09-23 20:14:04,15.08842186,0.0001976999999999,53.2166,118.266,44.6887,315.4264,0.00010603,1.4e-05,0.0,0 STARLINK-3880,1 52334U 22045D   22266.84311320  .00001400  00000-0  10603-3 0  9998,2 52334  53.2166 118.2660 0001977  44.6887 315.4264 15.08842186 24988,6917.874,95.437,541.106,538.371,0.0
52334.0,STARLINK-3880,PAYLOAD,2022-09-24 07:21:46,15.08841466,0.0002048,53.2172,116.1843,47.1858,312.9306,0.00017361,2.476e-05,0.0,0 STARLINK-3880,1 52334U 22045D   22267.30679230  .00002476  00000-0  17361-3 0  9999,2 52334  53.2172 116.1843 0002048  47.1858 312.9306 15.08841466 25059,6917.876,95.437,541.158,538.3240000000002,0.0
